start=new Date('2022-06-07T00:00:00.000Z').valueOf();
sats=[{"MEAN_ANOMALY":"168.9537","EPHEMERIS_TYPE":"0","GP_ID":"205525625","COUNTRY_CODE":"US","REF_FRAME":"TEME","BSTAR":"-0.00148400000000","CLASSIFICATION_TYPE":"U","OBJECT_NAME":"STARLINK-2748","PERIOD":"95.593","MEAN_MOTION_DDOT":"0.0000000000000","TLE_LINE2":"2 48694  53.0542 125.4838 0001841  44.1010 168.9537 15.06394114  1304","FILE":"3484350","RCS_SIZE":"LARGE","TIME_SYSTEM":"UTC","APOAPSIS":"548.507","TLE_LINE1":"1 48694U 21044BJ  22157.75002315 -.00022314  00000-0 -14840-2 0  9995","INCLINATION":"53.0542","MEAN_MOTION":"15.06394114","OBJECT_ID":"2021-044BJ","EPOCH":"2022-06-06T18:00:02.000160","MEAN_MOTION_DOT":"-0.00022314","PERIAPSIS":"545.957","NORAD_CAT_ID":"48694","CENTER_NAME":"EARTH","SEMIMAJOR_AXIS":"6925.367","LAUNCH_DATE":"2021-05-26","MEAN_ELEMENT_THEORY":"SGP4","SITE":"AFETR","RA_OF_ASC_NODE":"125.4838","ECCENTRICITY":"0.00018410","OBJECT_TYPE":"PAYLOAD","DECAY_DATE":null,"ARG_OF_PERICENTER":"44.1010","REV_AT_EPOCH":"130","ELEMENT_SET_NO":"999"},{"MEAN_MOTION_DDOT":"0.0000000000000","PERIOD":"95.592","TLE_LINE2":"2 48695  53.0558 125.0233 0002216  60.7350 299.3860 15.06402460 57432","APOAPSIS":"548.741","INCLINATION":"53.0558","TLE_LINE1":"1 48695U 21044BK  22157.86653711 -.00000495  00000-0 -14297-4 0  9994","MEAN_MOTION":"15.06402460","FILE":"3484350","RCS_SIZE":"LARGE","TIME_SYSTEM":"UTC","GP_ID":"205526372","EPHEMERIS_TYPE":"0","MEAN_ANOMALY":"299.3860","COUNTRY_CODE":"US","REF_FRAME":"TEME","CLASSIFICATION_TYPE":"U","BSTAR":"-0.00001429700000","OBJECT_NAME":"STARLINK-2616","RA_OF_ASC_NODE":"125.0233","ECCENTRICITY":"0.00022160","OBJECT_TYPE":"PAYLOAD","ARG_OF_PERICENTER":"60.7350","DECAY_DATE":null,"REV_AT_EPOCH":"5743","ELEMENT_SET_NO":"999","PERIAPSIS":"545.671","MEAN_MOTION_DOT":"-0.00000495","NORAD_CAT_ID":"48695","OBJECT_ID":"2021-044BK","EPOCH":"2022-06-06T20:47:48.806304","LAUNCH_DATE":"2021-05-26","CENTER_NAME":"EARTH","SEMIMAJOR_AXIS":"6925.341","MEAN_ELEMENT_THEORY":"SGP4","SITE":"AFETR"},{"SITE":"AFETR","MEAN_ELEMENT_THEORY":"SGP4","LAUNCH_DATE":"2021-05-26","SEMIMAJOR_AXIS":"6925.345","CENTER_NAME":"EARTH","NORAD_CAT_ID":"48696","PERIAPSIS":"545.904","MEAN_MOTION_DOT":"0.00001290","EPOCH":"2022-06-06T15:47:15.661824","OBJECT_ID":"2021-044BL","ELEMENT_SET_NO":"999","REV_AT_EPOCH":"5733","ARG_OF_PERICENTER":"60.4774","DECAY_DATE":null,"OBJECT_TYPE":"PAYLOAD","ECCENTRICITY":"0.00018870","RA_OF_ASC_NODE":"130.9529","OBJECT_NAME":"STARLINK-2753","BSTAR":"0.00010546000000","CLASSIFICATION_TYPE":"U","REF_FRAME":"TEME","COUNTRY_CODE":"US","GP_ID":"205526621","EPHEMERIS_TYPE":"0","MEAN_ANOMALY":"299.6403","INCLINATION":"53.0534","TLE_LINE1":"1 48696U 21044BL  22157.65782016  .00001290  00000-0  10546-3 0  9997","MEAN_MOTION":"15.06401034","APOAPSIS":"548.517","TIME_SYSTEM":"UTC","FILE":"3484350","RCS_SIZE":"LARGE","TLE_LINE2":"2 48696  53.0534 130.9529 0001887  60.4774 299.6403 15.06401034 57331","MEAN_MOTION_DDOT":"0.0000000000000","PERIOD":"95.592"},{"BSTAR":"0.00008872800000","CLASSIFICATION_TYPE":"U","OBJECT_NAME":"STARLINK-2715","EPHEMERIS_TYPE":"0","MEAN_ANOMALY":"300.8262","GP_ID":"205527346","COUNTRY_CODE":"US","REF_FRAME":"TEME","FILE":"3484350","RCS_SIZE":"LARGE","TIME_SYSTEM":"UTC","APOAPSIS":"548.804","TLE_LINE1":"1 48697U 21044BM  22157.62095668  .00001040  00000-0  88728-4 0  9996","MEAN_MOTION":"15.06402853","INCLINATION":"53.0543","PERIOD":"95.592","MEAN_MOTION_DDOT":"0.0000000000000","TLE_LINE2":"2 48697  53.0543 131.0879 0002309  59.2954 300.8262 15.06402853 57325","MEAN_ELEMENT_THEORY":"SGP4","SITE":"AFETR","OBJECT_ID":"2021-044BM","EPOCH":"2022-06-06T14:54:10.657152","MEAN_MOTION_DOT":"0.00001040","PERIAPSIS":"545.606","NORAD_CAT_ID":"48697","SEMIMAJOR_AXIS":"6925.340","CENTER_NAME":"EARTH","LAUNCH_DATE":"2021-05-26","DECAY_DATE":null,"ARG_OF_PERICENTER":"59.2954","REV_AT_EPOCH":"5732","ELEMENT_SET_NO":"999","RA_OF_ASC_NODE":"131.0879","ECCENTRICITY":"0.00023090","OBJECT_TYPE":"PAYLOAD"},{"COUNTRY_CODE":"US","REF_FRAME":"TEME","MEAN_ANOMALY":"35.7160","EPHEMERIS_TYPE":"0","GP_ID":"205500086","OBJECT_NAME":"STARLINK-3003","BSTAR":"-0.06331300000000","CLASSIFICATION_TYPE":"U","TLE_LINE2":"2 48879  97.5137 288.7658 0001883  83.3348  35.7160 15.13562806 52920","PERIOD":"95.140","MEAN_MOTION_DDOT":"0.0000000000000","TIME_SYSTEM":"UTC","RCS_SIZE":"LARGE","FILE":"3484174","TLE_LINE1":"1 48879U 21059A   22157.91667824 -.01052486  00000-0 -63313-1 0  9998","MEAN_MOTION":"15.13562806","INCLINATION":"97.5137","APOAPSIS":"526.647","SEMIMAJOR_AXIS":"6903.482","CENTER_NAME":"EARTH","LAUNCH_DATE":"2021-06-30","EPOCH":"2022-06-06T22:00:00.999936","OBJECT_ID":"2021-059A","NORAD_CAT_ID":"48879","MEAN_MOTION_DOT":"-0.01052486","PERIAPSIS":"524.047","SITE":"AFETR","MEAN_ELEMENT_THEORY":"SGP4","OBJECT_TYPE":"PAYLOAD","ECCENTRICITY":"0.00018830","RA_OF_ASC_NODE":"288.7658","ELEMENT_SET_NO":"999","REV_AT_EPOCH":"5292","DECAY_DATE":null,"ARG_OF_PERICENTER":"83.3348"},{"CLASSIFICATION_TYPE":"U","BSTAR":"-0.06342800000000","OBJECT_NAME":"STARLINK-3004","MEAN_ANOMALY":"40.4005","EPHEMERIS_TYPE":"0","GP_ID":"205527144","REF_FRAME":"TEME","COUNTRY_CODE":"US","TIME_SYSTEM":"UTC","RCS_SIZE":"LARGE","FILE":"3484350","INCLINATION":"97.5137","TLE_LINE1":"1 48880U 21059B   22157.91667824 -.01052653  00000-0 -63428-1 0  9993","MEAN_MOTION":"15.13504385","APOAPSIS":"526.821","PERIOD":"95.143","MEAN_MOTION_DDOT":"0.0000000000000","TLE_LINE2":"2 48880  97.5137 288.7635 0001877  88.9372  40.4005 15.13504385  1303","MEAN_ELEMENT_THEORY":"SGP4","SITE":"AFETR","EPOCH":"2022-06-06T22:00:00.999936","OBJECT_ID":"2021-059B","NORAD_CAT_ID":"48880","MEAN_MOTION_DOT":"-0.01052653","PERIAPSIS":"524.229","SEMIMAJOR_AXIS":"6903.660","CENTER_NAME":"EARTH","LAUNCH_DATE":"2021-06-30","DECAY_DATE":null,"ARG_OF_PERICENTER":"88.9372","ELEMENT_SET_NO":"999","REV_AT_EPOCH":"130","ECCENTRICITY":"0.00018770","RA_OF_ASC_NODE":"288.7635","OBJECT_TYPE":"PAYLOAD"},{"CENTER_NAME":"EARTH","SEMIMAJOR_AXIS":"6902.725","LAUNCH_DATE":"2021-06-30","EPOCH":"2022-06-06T22:00:00.999936","OBJECT_ID":"2021-059C","NORAD_CAT_ID":"48881","MEAN_MOTION_DOT":"-0.01053486","PERIAPSIS":"523.154","SITE":"AFETR","MEAN_ELEMENT_THEORY":"SGP4","OBJECT_TYPE":"PAYLOAD","ECCENTRICITY":"0.00020810","RA_OF_ASC_NODE":"288.7924","ELEMENT_SET_NO":"999","REV_AT_EPOCH":"130","DECAY_DATE":null,"ARG_OF_PERICENTER":"64.5840","COUNTRY_CODE":"US","REF_FRAME":"TEME","MEAN_ANOMALY":"82.4491","EPHEMERIS_TYPE":"0","GP_ID":"205527894","OBJECT_NAME":"STARLINK-3005","BSTAR":"-0.06293300000000","CLASSIFICATION_TYPE":"U","TLE_LINE2":"2 48881  97.5138 288.7924 0002081  64.5840  82.4491 15.13811793  1303","PERIOD":"95.124","MEAN_MOTION_DDOT":"0.0000000000000","TIME_SYSTEM":"UTC","RCS_SIZE":"LARGE","FILE":"3484350","INCLINATION":"97.5138","TLE_LINE1":"1 48881U 21059C   22157.91667824 -.01053486  00000-0 -62933-1 0  9999","MEAN_MOTION":"15.13811793","APOAPSIS":"526.027"},{"SITE":"AFWTR","MEAN_ELEMENT_THEORY":"SGP4","LAUNCH_DATE":"2021-09-14","CENTER_NAME":"EARTH","SEMIMAJOR_AXIS":"6950.178","NORAD_CAT_ID":"49131","PERIAPSIS":"570.122","MEAN_MOTION_DOT":"0.00000843","EPOCH":"2022-06-06T21:50:07.644480","OBJECT_ID":"2021-082B","ELEMENT_SET_NO":"999","REV_AT_EPOCH":"4148","ARG_OF_PERICENTER":"270.6440","DECAY_DATE":null,"OBJECT_TYPE":"PAYLOAD","ECCENTRICITY":"0.00027640","RA_OF_ASC_NODE":"113.2064","OBJECT_NAME":"STARLINK-3096","CLASSIFICATION_TYPE":"U","BSTAR":"0.00007838800000","REF_FRAME":"TEME","COUNTRY_CODE":"US","GP_ID":"205528146","MEAN_ANOMALY":"89.4402","EPHEMERIS_TYPE":"0","INCLINATION":"69.9966","TLE_LINE1":"1 49131U 21082B   22157.90981070  .00000843  00000-0  78388-4 0  9995","MEAN_MOTION":"14.98334803","APOAPSIS":"573.964","TIME_SYSTEM":"UTC","FILE":"3484350","RCS_SIZE":"LARGE","TLE_LINE2":"2 49131  69.9966 113.2064 0002764 270.6440  89.4402 14.98334803 41481","MEAN_MOTION_DDOT":"0.0000000000000","PERIOD":"96.107"},{"MEAN_ELEMENT_THEORY":"SGP4","SITE":"AFWTR","PERIAPSIS":"570.007","MEAN_MOTION_DOT":"0.00063326","NORAD_CAT_ID":"49132","OBJECT_ID":"2021-082C","EPOCH":"2022-06-06T20:00:01.000224","LAUNCH_DATE":"2021-09-14","CENTER_NAME":"EARTH","SEMIMAJOR_AXIS":"6950.311","ARG_OF_PERICENTER":"270.8022","DECAY_DATE":null,"REV_AT_EPOCH":"130","ELEMENT_SET_NO":"999","RA_OF_ASC_NODE":"153.3810","ECCENTRICITY":"0.00031210","OBJECT_TYPE":"PAYLOAD","BSTAR":"0.00527240000000","CLASSIFICATION_TYPE":"U","OBJECT_NAME":"STARLINK-3090","GP_ID":"205527427","EPHEMERIS_TYPE":"0","MEAN_ANOMALY":"220.1403","COUNTRY_CODE":"US","REF_FRAME":"TEME","APOAPSIS":"574.345","MEAN_MOTION":"14.98291800","TLE_LINE1":"1 49132U 21082C   22157.83334491  .00063326  00000-0  52724-2 0  9996","INCLINATION":"69.9997","RCS_SIZE":"LARGE","FILE":"3484350","TIME_SYSTEM":"UTC","MEAN_MOTION_DDOT":"0.0000000000000","PERIOD":"96.109","TLE_LINE2":"2 49132  69.9997 153.3810 0003121 270.8022 220.1403 14.98291800  1307"},{"CENTER_NAME":"EARTH","SEMIMAJOR_AXIS":"6950.340","LAUNCH_DATE":"2021-09-14","EPOCH":"2022-06-06T20:00:01.000224","OBJECT_ID":"2021-082D","NORAD_CAT_ID":"49133","PERIAPSIS":"569.985","MEAN_MOTION_DOT":"0.00063168","SITE":"AFWTR","MEAN_ELEMENT_THEORY":"SGP4","OBJECT_TYPE":"PAYLOAD","ECCENTRICITY":"0.00031950","RA_OF_ASC_NODE":"153.3902","ELEMENT_SET_NO":"999","REV_AT_EPOCH":"130","DECAY_DATE":null,"ARG_OF_PERICENTER":"267.1590","REF_FRAME":"TEME","COUNTRY_CODE":"US","EPHEMERIS_TYPE":"0","MEAN_ANOMALY":"249.3803","GP_ID":"205527673","OBJECT_NAME":"STARLINK-3077","BSTAR":"0.00526070000000","CLASSIFICATION_TYPE":"U","TLE_LINE2":"2 49133  70.0002 153.3902 0003195 267.1590 249.3803 14.98282315  1308","PERIOD":"96.110","MEAN_MOTION_DDOT":"0.0000000000000","TIME_SYSTEM":"UTC","RCS_SIZE":"LARGE","FILE":"3484350","TLE_LINE1":"1 49133U 21082D   22157.83334491  .00063168  00000-0  52607-2 0  9991","MEAN_MOTION":"14.98282315","INCLINATION":"70.0002","APOAPSIS":"574.426"}];
